ONEWEB-0658             
1 55819U 23029Z   26093.16124772 -.00000005  00000+0 -43751-4 0  9994
2 55819  87.9199 319.9037 0002133  81.8763 278.2612 13.19727041149026
ONEWEB-0660             
1 55820U 23029AA  26092.99840122 -.00000194  00000+0 -55719-3 0  9995
2 55820  87.8949 304.7044 0001950  94.3167 265.8186 13.14502004149521
ONEWEB-0661             
1 55821U 23029AB  26093.10940550  .00000282  00000+0  72602-3 0  9992
2 55821  87.8932 304.7355 0001809  96.2737 263.8599 13.14501775149526
ONEWEB-0662             
1 55822U 23029AC  26093.29652003 -.00000095  00000+0 -29175-3 0  9997
2 55822  87.8932 304.7058 0001944  93.4541 266.6811 13.14501622149595
ONEWEB-0663             
1 55823U 23029AD  26093.09276889  .00000075  00000+0  15326-3 0  9999
2 55823  87.9144 289.4949 0002140  93.0214 267.1164 13.20864485151239
ONEWEB-0664             
1 55824U 23029AE  26093.26800100  .00000100  00000+0  21355-3 0  9996
2 55824  87.9132 289.4493 0001780 106.4255 253.7074 13.20771126151256
ONEWEB-0665             
1 55825U 23029AF  26093.10622867  .00000254  00000+0  65094-3 0  9990
2 55825  87.8936 304.7167 0002049  91.8634 268.2730 13.14504612149540
ONEWEB-0666             
1 55826U 23029AG  26093.26168225  .00000139  00000+0  30885-3 0  9993
2 55826  87.9132 289.4400 0001266  68.9554 291.1715 13.20772451151260
ONEWEB-0667             
1 55827U 23029AH  26093.25537673  .00000140  00000+0  31175-3 0  9995
2 55827  87.9150 289.3864 0001824  94.8353 265.2988 13.20772414151251
ONEWEB-0669             
1 55828U 23029AJ  26093.09912502  .00000113  00000+0  24563-3 0  9999
2 55828  87.9130 289.4385 0001229 105.7262 254.4007 13.20772597151231
ONEWEB-0670             
1 55829U 23029AK  26093.00790181 -.00000314  00000+0 -88061-3 0  9996
2 55829  87.8939 304.7546 0001801 100.2949 259.8384 13.14502399149559
ONEWEB-0671             
1 55830U 23029AL  26093.15650320  .00000086  00000+0  18286-3 0  9990
2 55830  87.9186 319.9370 0001832  88.3165 271.8178 13.19727527149001
ONEWEB-0672             
1 55831U 23029AM  26093.24589174  .00006021  00000+0  14773-1 0  9999
2 55831  87.9137 289.3981 0001607  88.7987 271.3330 13.20743769151255
ONEWEB-0673             
1 55832U 23029AN  26093.13360092  .00000159  00000+0  36512-3 0  9997
2 55832  87.9190 319.9270 0001755  87.5732 272.5602 13.19726511149004
ONEWEB-0674             
1 55833U 23029AP  26093.28066441  .00000106  00000+0  25188-3 0  9994
2 55833  87.8935 304.6776 0001708 101.3460 258.7862 13.14503910149571
ONEWEB-0675             
1 55834U 23029AQ  26093.14861189  .00000032  00000+0  48587-4 0  9999
2 55834  87.9189 319.9399 0001671  72.9125 287.2190 13.19727072149027
