[{"OBJECT_NAME":"ONEWEB-0658","OBJECT_ID":"2023-029Z","EPOCH":"2026-04-03T03:52:11.803008","MEAN_MOTION":13.19727041,"ECCENTRICITY":0.0002133,"INCLINATION":87.9199,"RA_OF_ASC_NODE":319.9037,"ARG_OF_PERICENTER":81.8763,"MEAN_ANOMALY":278.2612,"EPHEMERIS_TYPE":0,"CLASSIFICATION_TYPE":"U","NORAD_CAT_ID":55819,"ELEMENT_SET_NO":999,"REV_AT_EPOCH":14902,"BSTAR":-4.3751e-05,"MEAN_MOTION_DOT":-5e-08,"MEAN_MOTION_DDOT":0.0},{"OBJECT_NAME":"ONEWEB-0660","OBJECT_ID":"2023-029AA","EPOCH":"2026-04-02T23:57:41.865408","MEAN_MOTION":13.14502004,"ECCENTRICITY":0.000195,"INCLINATION":87.8949,"RA_OF_ASC_NODE":304.7044,"ARG_OF_PERICENTER":94.3167,"MEAN_ANOMALY":265.8186,"EPHEMERIS_TYPE":0,"CLASSIFICATION_TYPE":"U","NORAD_CAT_ID":55820,"ELEMENT_SET_NO":999,"REV_AT_EPOCH":14952,"BSTAR":-0.0005571899999999999,"MEAN_MOTION_DOT":-1.94e-06,"MEAN_MOTION_DDOT":0.0},{"OBJECT_NAME":"ONEWEB-0661","OBJECT_ID":"2023-029AB","EPOCH":"2026-04-03T02:37:32.635200","MEAN_MOTION":13.14501775,"ECCENTRICITY":0.0001809,"INCLINATION":87.8932,"RA_OF_ASC_NODE":304.7355,"ARG_OF_PERICENTER":96.2737,"MEAN_ANOMALY":263.8599,"EPHEMERIS_TYPE":0,"CLASSIFICATION_TYPE":"U","NORAD_CAT_ID":55821,"ELEMENT_SET_NO":999,"REV_AT_EPOCH":14952,"BSTAR":0.00072602,"MEAN_MOTION_DOT":2.82e-06,"MEAN_MOTION_DDOT":0.0},{"OBJECT_NAME":"ONEWEB-0662","OBJECT_ID":"2023-029AC","EPOCH":"2026-04-03T07:06:59.330592","MEAN_MOTION":13.14501622,"ECCENTRICITY":0.0001944,"INCLINATION":87.8932,"RA_OF_ASC_NODE":304.7058,"ARG_OF_PERICENTER":93.4541,"MEAN_ANOMALY":266.6811,"EPHEMERIS_TYPE":0,"CLASSIFICATION_TYPE":"U","NORAD_CAT_ID":55822,"ELEMENT_SET_NO":999,"REV_AT_EPOCH":14959,"BSTAR":-0.00029175,"MEAN_MOTION_DOT":-9.5e-07,"MEAN_MOTION_DDOT":0.0},{"OBJECT_NAME":"ONEWEB-0663","OBJECT_ID":"2023-029AD","EPOCH":"2026-04-03T02:13:35.232096","MEAN_MOTION":13.20864485,"ECCENTRICITY":0.000214,"INCLINATION":87.9144,"RA_OF_ASC_NODE":289.4949,"ARG_OF_PERICENTER":93.0214,"MEAN_ANOMALY":267.1164,"EPHEMERIS_TYPE":0,"CLASSIFICATION_TYPE":"U","NORAD_CAT_ID":55823,"ELEMENT_SET_NO":999,"REV_AT_EPOCH":15123,"BSTAR":0.00015326,"MEAN_MOTION_DOT":7.5e-07,"MEAN_MOTION_DDOT":0.0},{"OBJECT_NAME":"ONEWEB-0664","OBJECT_ID":"2023-029AE","EPOCH":"2026-04-03T06:25:55.286400","MEAN_MOTION":13.20771126,"ECCENTRICITY":0.000178,"INCLINATION":87.9132,"RA_OF_ASC_NODE":289.4493,"ARG_OF_PERICENTER":106.4255,"MEAN_ANOMALY":253.7074,"EPHEMERIS_TYPE":0,"CLASSIFICATION_TYPE":"U","NORAD_CAT_ID":55824,"ELEMENT_SET_NO":999,"REV_AT_EPOCH":15125,"BSTAR":0.00021355,"MEAN_MOTION_DOT":1e-06,"MEAN_MOTION_DDOT":0.0},{"OBJECT_NAME":"ONEWEB-0665","OBJECT_ID":"2023-029AF","EPOCH":"2026-04-03T02:32:58.157088","MEAN_MOTION":13.14504612,"ECCENTRICITY":0.0002049,"INCLINATION":87.8936,"RA_OF_ASC_NODE":304.7167,"ARG_OF_PERICENTER":91.8634,"MEAN_ANOMALY":268.273,"EPHEMERIS_TYPE":0,"CLASSIFICATION_TYPE":"U","NORAD_CAT_ID":55825,"ELEMENT_SET_NO":999,"REV_AT_EPOCH":14954,"BSTAR":0.00065094,"MEAN_MOTION_DOT":2.54e-06,"MEAN_MOTION_DDOT":0.0},{"OBJECT_NAME":"ONEWEB-0666","OBJECT_ID":"2023-029AG","EPOCH":"2026-04-03T06:16:49.346400","MEAN_MOTION":13.20772451,"ECCENTRICITY":0.0001266,"INCLINATION":87.9132,"RA_OF_ASC_NODE":289.44,"ARG_OF_PERICENTER":68.9554,"MEAN_ANOMALY":291.1715,"EPHEMERIS_TYPE":0,"CLASSIFICATION_TYPE":"U","NORAD_CAT_ID":55826,"ELEMENT_SET_NO":999,"REV_AT_EPOCH":15126,"BSTAR":0.00030885,"MEAN_MOTION_DOT":1.39e-06,"MEAN_MOTION_DDOT":0.0},{"OBJECT_NAME":"ONEWEB-0667","OBJECT_ID":"2023-029AH","EPOCH":"2026-04-03T06:07:44.549472","MEAN_MOTION":13.20772414,"ECCENTRICITY":0.0001824,"INCLINATION":87.915,"RA_OF_ASC_NODE":289.3864,"ARG_OF_PERICENTER":94.8353,"MEAN_ANOMALY":265.2988,"EPHEMERIS_TYPE":0,"CLASSIFICATION_TYPE":"U","NORAD_CAT_ID":55827,"ELEMENT_SET_NO":999,"REV_AT_EPOCH":15125,"BSTAR":0.00031175,"MEAN_MOTION_DOT":1.4e-06,"MEAN_MOTION_DDOT":0.0},{"OBJECT_NAME":"ONEWEB-0669","OBJECT_ID":"2023-029AJ","EPOCH":"2026-04-03T02:22:44.401728","MEAN_MOTION":13.20772597,"ECCENTRICITY":0.0001229,"INCLINATION":87.913,"RA_OF_ASC_NODE":289.4385,"ARG_OF_PERICENTER":105.7262,"MEAN_ANOMALY":254.4007,"EPHEMERIS_TYPE":0,"CLASSIFICATION_TYPE":"U","NORAD_CAT_ID":55828,"ELEMENT_SET_NO":999,"REV_AT_EPOCH":15123,"BSTAR":0.00024563,"MEAN_MOTION_DOT":1.13e-06,"MEAN_MOTION_DDOT":0.0},{"OBJECT_NAME":"ONEWEB-0670","OBJECT_ID":"2023-029AK","EPOCH":"2026-04-03T00:11:22.716384","MEAN_MOTION":13.14502399,"ECCENTRICITY":0.0001801,"INCLINATION":87.8939,"RA_OF_ASC_NODE":304.7546,"ARG_OF_PERICENTER":100.2949,"MEAN_ANOMALY":259.8384,"EPHEMERIS_TYPE":0,"CLASSIFICATION_TYPE":"U","NORAD_CAT_ID":55829,"ELEMENT_SET_NO":999,"REV_AT_EPOCH":14955,"BSTAR":-0.00088061,"MEAN_MOTION_DOT":-3.14e-06,"MEAN_MOTION_DDOT":0.0},{"OBJECT_NAME":"ONEWEB-0671","OBJECT_ID":"2023-029AL","EPOCH":"2026-04-03T03:45:21.876480","MEAN_MOTION":13.19727527,"ECCENTRICITY":0.0001832,"INCLINATION":87.9186,"RA_OF_ASC_NODE":319.937,"ARG_OF_PERICENTER":88.3165,"MEAN_ANOMALY":271.8178,"EPHEMERIS_TYPE":0,"CLASSIFICATION_TYPE":"U","NORAD_CAT_ID":55830,"ELEMENT_SET_NO":999,"REV_AT_EPOCH":14900,"BSTAR":0.00018286,"MEAN_MOTION_DOT":8.6e-07,"MEAN_MOTION_DDOT":0.0},{"OBJECT_NAME":"ONEWEB-0672","OBJECT_ID":"2023-029AM","EPOCH":"2026-04-03T05:54:05.046336","MEAN_MOTION":13.20743769,"ECCENTRICITY":0.0001607,"INCLINATION":87.9137,"RA_OF_ASC_NODE":289.3981,"ARG_OF_PERICENTER":88.7987,"MEAN_ANOMALY":271.333,"EPHEMERIS_TYPE":0,"CLASSIFICATION_TYPE":"U","NORAD_CAT_ID":55831,"ELEMENT_SET_NO":999,"REV_AT_EPOCH":15125,"BSTAR":0.014773000000000001,"MEAN_MOTION_DOT":6.021e-05,"MEAN_MOTION_DDOT":0.0},{"OBJECT_NAME":"ONEWEB-0673","OBJECT_ID":"2023-029AN","EPOCH":"2026-04-03T03:12:23.119488","MEAN_MOTION":13.19726511,"ECCENTRICITY":0.0001755,"INCLINATION":87.919,"RA_OF_ASC_NODE":319.927,"ARG_OF_PERICENTER":87.5732,"MEAN_ANOMALY":272.5602,"EPHEMERIS_TYPE":0,"CLASSIFICATION_TYPE":"U","NORAD_CAT_ID":55832,"ELEMENT_SET_NO":999,"REV_AT_EPOCH":14900,"BSTAR":0.00036512000000000003,"MEAN_MOTION_DOT":1.59e-06,"MEAN_MOTION_DDOT":0.0},{"OBJECT_NAME":"ONEWEB-0674","OBJECT_ID":"2023-029AP","EPOCH":"2026-04-03T06:44:09.405024","MEAN_MOTION":13.1450391,"ECCENTRICITY":0.0001708,"INCLINATION":87.8935,"RA_OF_ASC_NODE":304.6776,"ARG_OF_PERICENTER":101.346,"MEAN_ANOMALY":258.7862,"EPHEMERIS_TYPE":0,"CLASSIFICATION_TYPE":"U","NORAD_CAT_ID":55833,"ELEMENT_SET_NO":999,"REV_AT_EPOCH":14957,"BSTAR":0.00025188,"MEAN_MOTION_DOT":1.06e-06,"MEAN_MOTION_DDOT":0.0},{"OBJECT_NAME":"ONEWEB-0675","OBJECT_ID":"2023-029AQ","EPOCH":"2026-04-03T03:34:00.067296","MEAN_MOTION":13.19727072,"ECCENTRICITY":0.0001671,"INCLINATION":87.9189,"RA_OF_ASC_NODE":319.9399,"ARG_OF_PERICENTER":72.9125,"MEAN_ANOMALY":287.219,"EPHEMERIS_TYPE":0,"CLASSIFICATION_TYPE":"U","NORAD_CAT_ID":55834,"ELEMENT_SET_NO":999,"REV_AT_EPOCH":14902,"BSTAR":4.858700000000001e-05,"MEAN_MOTION_DOT":3.2e-07,"MEAN_MOTION_DDOT":0.0}]